STARLINK-36840
1 67850U 26034A   26090.53061240  .00077031  00000+0  13785-2 0  9992
2 67850  53.1602 103.9565 0001753  87.9481 272.1729 15.49328886  7367
STARLINK-36348
1 67851U 26034B   26090.55037814  .00063170  00000+0  11341-2 0  9990
2 67851  53.1603 104.0838 0001671 107.6486 252.4705 15.49323270  7365
STARLINK-36276
1 67852U 26034C   26090.74902690  .00110656  00000+0  19676-2 0  9996
2 67852  53.1601 103.1929 0001202  80.9563 279.1582 15.49337998  7398
STARLINK-36843
1 67856U 26034G   26090.32104499  .00066104  00000+0  11863-2 0  9993
2 67856  53.1601 104.7755 0001192  94.5009 265.6136 15.49314125  7336
STARLINK-36837
1 67858U 26034J   26090.76640696  .00120449  00000+0  21375-2 0  9999
2 67858  53.1600 102.5751 0001477  76.5741 283.5433 15.49349169  7401
STARLINK-36784
1 67877U 26034AD  26090.45897377  .00058139  00000+0  10455-2 0  9999
2 67877  53.1596 104.2122 0001426 101.4165 258.7005 15.49311940  7358
